[Satellite]
VERSION=1.1
NAME=LAGEOS 1
NICKNAME=LAGEOS 1
TLE1=1 08820U 76039A   15054.57564468  .00000014  00000-0  00000+0 0  9997
TLE2=2 08820 109.8180 204.0351 0044014 107.3706 259.1649  6.38664747649702
